{
  "type": "FeatureCollection",
  "features": [
    {
      "type": "Feature",
      "properties": {
        "norad_id": 38867,
        "name": "INTELSAT 23 (IS-23)",
        "group": "intelsat",
        "lat": 0.03323262806979457,
        "lon": 138.38831591472774,
        "alt_km": 35784.72586437371,
        "timestamp": "2025-12-17T07:00:46.559668+00:00",
        "meta_object_name": "INTELSAT 23 (IS-23)",
        "meta_object_id": "2012-057A",
        "meta_epoch": "2025-12-16T09:40:50.962368",
        "meta_mean_motion": 1.00276027,
        "meta_eccentricity": 4.125e-05,
        "meta_inclination": 0.0417,
        "meta_ra_of_asc_node": 95.2831,
        "meta_arg_of_pericenter": 124.0894,
        "meta_mean_anomaly": 318.1615,
        "meta_ephemeris_type": 0,
        "meta_classification_type": "U",
        "meta_norad_cat_id": 38867,
        "meta_element_set_no": 999,
        "meta_rev_at_epoch": 4812,
        "meta_bstar": 0,
        "meta_mean_motion_dot": -2.61e-06,
        "meta_mean_motion_ddot": 0,
        "tle_line1": "1 38867U 12057A   25350.40336762 -.00000261  00000+0  00000+0 0  9991",
        "tle_line2": "2 38867   0.0417  95.2831 0000412 124.0894 318.1615  1.00276027 48124"
      },
      "geometry": {
        "type": "Point",
        "coordinates": [
          138.38831591472774,
          0.03323262806979457
        ]
      }
    },
    {
      "type": "Feature",
      "properties": {
        "norad_id": 39360,
        "name": "FM-6",
        "group": "intelsat",
        "lat": 0.015360926701024027,
        "lon": 75.15989893418593,
        "alt_km": 35789.46966951475,
        "timestamp": "2025-12-17T07:00:46.559680+00:00",
        "meta_object_name": "FM-6",
        "meta_object_id": "2013-058A",
        "meta_epoch": "2025-12-16T16:13:44.564736",
        "meta_mean_motion": 1.00268686,
        "meta_eccentricity": 0.00029718,
        "meta_inclination": 0.0086,
        "meta_ra_of_asc_node": 55.4244,
        "meta_arg_of_pericenter": 121.4304,
        "meta_mean_anomaly": 35.9915,
        "meta_ephemeris_type": 0,
        "meta_classification_type": "U",
        "meta_norad_cat_id": 39360,
        "meta_element_set_no": 999,
        "meta_rev_at_epoch": 4424,
        "meta_bstar": 0,
        "meta_mean_motion_dot": 7e-08,
        "meta_mean_motion_ddot": 0,
        "tle_line1": "1 39360U 13058A   25350.67621024  .00000007  00000+0  00000+0 0  9996",
        "tle_line2": "2 39360   0.0086  55.4244 0002971 121.4304  35.9915  1.00268686 44248"
      },
      "geometry": {
        "type": "Point",
        "coordinates": [
          75.15989893418593,
          0.015360926701024027
        ]
      }
    },
    {
      "type": "Feature",
      "properties": {
        "norad_id": 40271,
        "name": "INTELSAT 30 (IS-30)",
        "group": "intelsat",
        "lat": 0.03474697930975949,
        "lon": 96.30392087349729,
        "alt_km": 35779.766182122396,
        "timestamp": "2025-12-17T07:00:46.559693+00:00",
        "meta_object_name": "INTELSAT 30 (IS-30)",
        "meta_object_id": "2014-062A",
        "meta_epoch": "2025-12-16T14:36:52.612992",
        "meta_mean_motion": 1.00271,
        "meta_eccentricity": 0.00015819,
        "meta_inclination": 0.0138,
        "meta_ra_of_asc_node": 18.7228,
        "meta_arg_of_pericenter": 65.798,
        "meta_mean_anomaly": 125.1451,
        "meta_ephemeris_type": 0,
        "meta_classification_type": "U",
        "meta_norad_cat_id": 40271,
        "meta_element_set_no": 999,
        "meta_rev_at_epoch": 496,
        "meta_bstar": 0,
        "meta_mean_motion_dot": -1.27e-06,
        "meta_mean_motion_ddot": 0,
        "tle_line1": "1 40271U 14062A   25350.60894228 -.00000127  00000+0  00000+0 0  9990",
        "tle_line2": "2 40271   0.0138  18.7228 0001581  65.7980 125.1451  1.00271000  4965"
      },
      "geometry": {
        "type": "Point",
        "coordinates": [
          96.30392087349729,
          0.03474697930975949
        ]
      }
    },
    {
      "type": "Feature",
      "properties": {
        "norad_id": 40333,
        "name": "DIRECTV 14",
        "group": "intelsat",
        "lat": 0.02423973102463952,
        "lon": 92.13016919768395,
        "alt_km": 35785.028025241634,
        "timestamp": "2025-12-17T07:00:46.559705+00:00",
        "meta_object_name": "DIRECTV 14",
        "meta_object_id": "2014-078B",
        "meta_epoch": "2025-12-16T14:35:52.709280",
        "meta_mean_motion": 1.002726,
        "meta_eccentricity": 4.026e-05,
        "meta_inclination": 0.0022,
        "meta_ra_of_asc_node": 13.9355,
        "meta_arg_of_pericenter": 138.5188,
        "meta_mean_anomaly": 52.7913,
        "meta_ephemeris_type": 0,
        "meta_classification_type": "U",
        "meta_norad_cat_id": 40333,
        "meta_element_set_no": 999,
        "meta_rev_at_epoch": 4021,
        "meta_bstar": 0,
        "meta_mean_motion_dot": -1.02e-06,
        "meta_mean_motion_ddot": 0,
        "tle_line1": "1 40333U 14078B   25350.60824895 -.00000102  00000+0  00000+0 0  9992",
        "tle_line2": "2 40333   0.0022  13.9355 0000402 138.5188  52.7913  1.00272600 40217"
      },
      "geometry": {
        "type": "Point",
        "coordinates": [
          92.13016919768395,
          0.02423973102463952
        ]
      }
    },
    {
      "type": "Feature",
      "properties": {
        "norad_id": 40663,
        "name": "DIRECTV 15",
        "group": "intelsat",
        "lat": 0.02553933325021688,
        "lon": 88.47318310871981,
        "alt_km": 35786.03476074444,
        "timestamp": "2025-12-17T07:00:46.559717+00:00",
        "meta_object_name": "DIRECTV 15",
        "meta_object_id": "2015-026A",
        "meta_epoch": "2025-12-16T14:34:45.316416",
        "meta_mean_motion": 1.0026971,
        "meta_eccentricity": 2.235e-05,
        "meta_inclination": 0.0412,
        "meta_ra_of_asc_node": 83.857,
        "meta_arg_of_pericenter": 316.6385,
        "meta_mean_anomaly": 160.8127,
        "meta_ephemeris_type": 0,
        "meta_classification_type": "U",
        "meta_norad_cat_id": 40663,
        "meta_element_set_no": 999,
        "meta_rev_at_epoch": 3863,
        "meta_bstar": 0,
        "meta_mean_motion_dot": -7.8e-07,
        "meta_mean_motion_ddot": 0,
        "tle_line1": "1 40663U 15026A   25350.60746894 -.00000078  00000+0  00000+0 0  9996",
        "tle_line2": "2 40663   0.0412  83.8570 0000223 316.6385 160.8127  1.00269710 38639"
      },
      "geometry": {
        "type": "Point",
        "coordinates": [
          88.47318310871981,
          0.02553933325021688
        ]
      }
    },
    {
      "type": "Feature",
      "properties": {
        "norad_id": 40664,
        "name": "SKY MEXICO-1",
        "group": "intelsat",
        "lat": 0.015916198592851778,
        "lon": 112.5835720999616,
        "alt_km": 35796.189821324486,
        "timestamp": "2025-12-17T07:00:46.559730+00:00",
        "meta_object_name": "SKY MEXICO-1",
        "meta_object_id": "2015-026B",
        "meta_epoch": "2025-12-16T09:33:29.684736",
        "meta_mean_motion": 1.0027154,
        "meta_eccentricity": 0.00024006,
        "meta_inclination": 0.0194,
        "meta_ra_of_asc_node": 301.9288,
        "meta_arg_of_pericenter": 339.69,
        "meta_mean_anomaly": 228.2818,
        "meta_ephemeris_type": 0,
        "meta_classification_type": "U",
        "meta_norad_cat_id": 40664,
        "meta_element_set_no": 999,
        "meta_rev_at_epoch": 3862,
        "meta_bstar": 0,
        "meta_mean_motion_dot": -2.11e-06,
        "meta_mean_motion_ddot": 0,
        "tle_line1": "1 40664U 15026B   25350.39826024 -.00000211  00000+0  00000+0 0  9996",
        "tle_line2": "2 40664   0.0194 301.9288 0002400 339.6900 228.2818  1.00271540 38623"
      },
      "geometry": {
        "type": "Point",
        "coordinates": [
          112.5835720999616,
          0.015916198592851778
        ]
      }
    },
    {
      "type": "Feature",
      "properties": {
        "norad_id": 40874,
        "name": "INTELSAT 34 (IS-34)",
        "group": "intelsat",
        "lat": 0.005141623833482533,
        "lon": 135.85049692738616,
        "alt_km": 35783.64424498522,
        "timestamp": "2025-12-17T07:00:46.559742+00:00",
        "meta_object_name": "INTELSAT 34 (IS-34)",
        "meta_object_id": "2015-039A",
        "meta_epoch": "2025-12-16T16:30:50.428224",
        "meta_mean_motion": 1.00270545,
        "meta_eccentricity": 6.957e-05,
        "meta_inclination": 0.0134,
        "meta_ra_of_asc_node": 312.2249,
        "meta_arg_of_pericenter": 195.9372,
        "meta_mean_anomaly": 129.6257,
        "meta_ephemeris_type": 0,
        "meta_classification_type": "U",
        "meta_norad_cat_id": 40874,
        "meta_element_set_no": 999,
        "meta_rev_at_epoch": 3779,
        "meta_bstar": 0,
        "meta_mean_motion_dot": -2.61e-06,
        "meta_mean_motion_ddot": 0,
        "tle_line1": "1 40874U 15039A   25350.68808366 -.00000261  00000+0  00000+0 0  9999",
        "tle_line2": "2 40874   0.0134 312.2249 0000695 195.9372 129.6257  1.00270545 37794"
      },
      "geometry": {
        "type": "Point",
        "coordinates": [
          135.85049692738616,
          0.005141623833482533
        ]
      }
    }
  ]
}